{"fetched_at":"2026-03-29T02:12:04Z","count":15717,"tles":[{"name":"GUOWANG GROUP 20 OBJECT*","line1":"1 68131U 26047C   26085.82615450 -.00000111  00000+0  27090-4 0  9995","line2":"2 68131  49.9996   0.7054 0000048  49.5998 310.4907 13.96862690  1970","category":"Other"}]}